ARIANE 2 DEB            
1 29023U 89006AP  26057.34748645 -.00000072  00000+0 -67996-3 0  9990
2 29023   8.3392  23.4106 7074722 194.4744 258.8691  2.25191029 97603
JCSAT-5A                
1 29045U 06010A   26066.45391800 -.00000329  00000+0  00000+0 0  9990
2 29045   0.8451  85.5585 0001755 320.4376  54.6376  1.00272594 72751
BLOCK DM-SL R/B         
1 29046U 06010B   26066.30158701 -.00000161  00000+0  00000+0 0  9990
2 29046   0.1081 320.3179 6790331 180.4845 296.5244  2.19415681159551
ASTRA 1KR               
1 29055U 06012A   26066.29842968  .00000117  00000+0  00000+0 0  9995
2 29055   0.2109  81.8775 0003352 255.3650 314.1725  1.00270828 44672
MSG-2 DEB [COOLER COVER]
1 29106U 05049E   26064.96433646 -.00000139  00000+0  00000+0 0  9997
2 29106  12.6986  29.7011 0013020 281.3883 257.9904  1.01180259 73880
EWS-G1 (GOES 13)        
1 29155U 06018A   26066.19489213  .00000047  00000+0  00000+0 0  9993
2 29155   4.2679  77.6674 0062004 273.3869 117.9287  0.98785729 42241
SL-12 R/B(2)            
1 29233U 06022D   26066.58243363 -.00000224  00000+0  00000+0 0  9990
2 29233  12.3886  23.2677 0050733  38.3171  25.3808  1.01014338 72744
GALAXY 16 (G-16)        
1 29236U 06023A   26066.35183693 -.00000129  00000+0  00000+0 0  9992
2 29236   0.0363 226.3550 0002680 127.6167 198.7343  1.00273164 71956
BLOCK DM-SL R/B         
1 29237U 06023B   26066.27568937 -.00000101  00000+0  00000+0 0  9992
2 29237   0.4741  38.5062 6616945   1.8467 353.2192  2.15890916155476
SL-6 R/B(2)             
1 29261U 06030B   26061.51618332  .00001032  00000+0  12170-1 0  9990
2 29261  61.7530 179.1957 7081943 261.2702  19.7362  2.05489211147085
EUTELSAT 33F            
1 29270U 06032A   26066.24905808  .00000154  00000+0  00000+0 0  9995
2 29270   1.3981  83.4402 0003511 265.0234 299.2286  1.00270794 46285
JCSAT-3A                
1 29272U 06033A   26066.40878139 -.00000346  00000+0  00000+0 0  9996
2 29272   0.0232 257.4623 0002076  91.2403  91.5694  1.00271336 46719
SYRACUSE 3B             
1 29273U 06033B   26066.29530966  .00000019  00000+0  00000+0 0  9993
2 29273   2.6368  81.3565 0004058 267.6990 285.5692  1.00271594 71659
KOREASAT 5 (MUGUNGWHA 5)
1 29349U 06034A   26066.58169897 -.00000359  00000+0  00000+0 0  9999
2 29349   1.5221  84.3188 0001982 301.8740 101.5552  1.00272773 40300
ZHONGXING-22A           
1 29398U 06038A   26066.31443550  .00000011  00000+0  00000+0 0  9993
2 29398  11.3104  38.1924 0001115 261.2857 219.8034  1.00070258 71366
DIRECTV 9S              
1 29494U 06043A   26066.33852860 -.00000115  00000+0  00000+0 0  9992
2 29494   2.1576  82.1645 0003186 274.9456 188.5978  1.00272460 50364
OPTUS D1                
1 29495U 06043B   26066.53030816 -.00000185  00000+0  00000+0 0  9991
2 29495   2.7727  80.9279 0003906 271.7035 155.4915  1.00272266 71109
