[{"OBJECT_NAME":"ARIANE 2 DEB","OBJECT_ID":"1989-006AP","EPOCH":"2026-02-26T08:20:22.829280","MEAN_MOTION":2.25191029,"ECCENTRICITY":0.7074722,"INCLINATION":8.3392,"RA_OF_ASC_NODE":23.4106,"ARG_OF_PERICENTER":194.4744,"MEAN_ANOMALY":258.8691,"EPHEMERIS_TYPE":0,"CLASSIFICATION_TYPE":"U","NORAD_CAT_ID":29023,"ELEMENT_SET_NO":999,"REV_AT_EPOCH":9760,"BSTAR":-0.00067996,"MEAN_MOTION_DOT":-7.2e-7,"MEAN_MOTION_DDOT":0},{"OBJECT_NAME":"JCSAT-5A","OBJECT_ID":"2006-010A","EPOCH":"2026-03-07T10:53:38.515200","MEAN_MOTION":1.00272594,"ECCENTRICITY":0.00017555,"INCLINATION":0.8451,"RA_OF_ASC_NODE":85.5585,"ARG_OF_PERICENTER":320.4376,"MEAN_ANOMALY":54.6376,"EPHEMERIS_TYPE":0,"CLASSIFICATION_TYPE":"U","NORAD_CAT_ID":29045,"ELEMENT_SET_NO":999,"REV_AT_EPOCH":7275,"BSTAR":0,"MEAN_MOTION_DOT":-3.29e-6,"MEAN_MOTION_DDOT":0},{"OBJECT_NAME":"BLOCK DM-SL R/B","OBJECT_ID":"2006-010B","EPOCH":"2026-03-07T07:14:17.117664","MEAN_MOTION":2.19415681,"ECCENTRICITY":0.67903318,"INCLINATION":0.1081,"RA_OF_ASC_NODE":320.3179,"ARG_OF_PERICENTER":180.4845,"MEAN_ANOMALY":296.5244,"EPHEMERIS_TYPE":0,"CLASSIFICATION_TYPE":"U","NORAD_CAT_ID":29046,"ELEMENT_SET_NO":999,"REV_AT_EPOCH":15955,"BSTAR":0,"MEAN_MOTION_DOT":-1.61e-6,"MEAN_MOTION_DDOT":0},{"OBJECT_NAME":"ASTRA 1KR","OBJECT_ID":"2006-012A","EPOCH":"2026-03-07T07:09:44.324352","MEAN_MOTION":1.00270828,"ECCENTRICITY":0.00033525,"INCLINATION":0.2109,"RA_OF_ASC_NODE":81.8775,"ARG_OF_PERICENTER":255.365,"MEAN_ANOMALY":314.1725,"EPHEMERIS_TYPE":0,"CLASSIFICATION_TYPE":"U","NORAD_CAT_ID":29055,"ELEMENT_SET_NO":999,"REV_AT_EPOCH":4467,"BSTAR":0,"MEAN_MOTION_DOT":1.17e-6,"MEAN_MOTION_DDOT":0},{"OBJECT_NAME":"MSG-2 DEB [COOLER COVER]","OBJECT_ID":"2005-049E","EPOCH":"2026-03-05T23:08:38.670144","MEAN_MOTION":1.01180259,"ECCENTRICITY":0.00130203,"INCLINATION":12.6986,"RA_OF_ASC_NODE":29.7011,"ARG_OF_PERICENTER":281.3883,"MEAN_ANOMALY":257.9904,"EPHEMERIS_TYPE":0,"CLASSIFICATION_TYPE":"U","NORAD_CAT_ID":29106,"ELEMENT_SET_NO":999,"REV_AT_EPOCH":7388,"BSTAR":0,"MEAN_MOTION_DOT":-1.39e-6,"MEAN_MOTION_DDOT":0},{"OBJECT_NAME":"EWS-G1 (GOES 13)","OBJECT_ID":"2006-018A","EPOCH":"2026-03-07T04:40:38.680032","MEAN_MOTION":0.98785729,"ECCENTRICITY":0.0062004,"INCLINATION":4.2679,"RA_OF_ASC_NODE":77.6674,"ARG_OF_PERICENTER":273.3869,"MEAN_ANOMALY":117.9287,"EPHEMERIS_TYPE":0,"CLASSIFICATION_TYPE":"U","NORAD_CAT_ID":29155,"ELEMENT_SET_NO":999,"REV_AT_EPOCH":4224,"BSTAR":0,"MEAN_MOTION_DOT":4.7e-7,"MEAN_MOTION_DDOT":0},{"OBJECT_NAME":"SL-12 R/B(2)","OBJECT_ID":"2006-022D","EPOCH":"2026-03-07T13:58:42.265632","MEAN_MOTION":1.01014338,"ECCENTRICITY":0.00507332,"INCLINATION":12.3886,"RA_OF_ASC_NODE":23.2677,"ARG_OF_PERICENTER":38.3171,"MEAN_ANOMALY":25.3808,"EPHEMERIS_TYPE":0,"CLASSIFICATION_TYPE":"U","NORAD_CAT_ID":29233,"ELEMENT_SET_NO":999,"REV_AT_EPOCH":7274,"BSTAR":0,"MEAN_MOTION_DOT":-2.24e-6,"MEAN_MOTION_DDOT":0},{"OBJECT_NAME":"GALAXY 16 (G-16)","OBJECT_ID":"2006-023A","EPOCH":"2026-03-07T08:26:38.710752","MEAN_MOTION":1.00273164,"ECCENTRICITY":0.00026806,"INCLINATION":0.0363,"RA_OF_ASC_NODE":226.355,"ARG_OF_PERICENTER":127.6167,"MEAN_ANOMALY":198.7343,"EPHEMERIS_TYPE":0,"CLASSIFICATION_TYPE":"U","NORAD_CAT_ID":29236,"ELEMENT_SET_NO":999,"REV_AT_EPOCH":7195,"BSTAR":0,"MEAN_MOTION_DOT":-1.29e-6,"MEAN_MOTION_DDOT":0},{"OBJECT_NAME":"BLOCK DM-SL R/B","OBJECT_ID":"2006-023B","EPOCH":"2026-03-07T06:36:59.561568","MEAN_MOTION":2.15890916,"ECCENTRICITY":0.66169458,"INCLINATION":0.4741,"RA_OF_ASC_NODE":38.5062,"ARG_OF_PERICENTER":1.8467,"MEAN_ANOMALY":353.2192,"EPHEMERIS_TYPE":0,"CLASSIFICATION_TYPE":"U","NORAD_CAT_ID":29237,"ELEMENT_SET_NO":999,"REV_AT_EPOCH":15547,"BSTAR":0,"MEAN_MOTION_DOT":-1.01e-6,"MEAN_MOTION_DDOT":0},{"OBJECT_NAME":"SL-6 R/B(2)","OBJECT_ID":"2006-030B","EPOCH":"2026-03-02T12:23:18.238848","MEAN_MOTION":2.05489211,"ECCENTRICITY":0.70819431,"INCLINATION":61.753,"RA_OF_ASC_NODE":179.1957,"ARG_OF_PERICENTER":261.2702,"MEAN_ANOMALY":19.7362,"EPHEMERIS_TYPE":0,"CLASSIFICATION_TYPE":"U","NORAD_CAT_ID":29261,"ELEMENT_SET_NO":999,"REV_AT_EPOCH":14708,"BSTAR":0.012169985,"MEAN_MOTION_DOT":1.032e-5,"MEAN_MOTION_DDOT":0},{"OBJECT_NAME":"EUTELSAT 33F","OBJECT_ID":"2006-032A","EPOCH":"2026-03-07T05:58:38.618112","MEAN_MOTION":1.00270794,"ECCENTRICITY":0.0003511,"INCLINATION":1.3981,"RA_OF_ASC_NODE":83.4402,"ARG_OF_PERICENTER":265.0234,"MEAN_ANOMALY":299.2286,"EPHEMERIS_TYPE":0,"CLASSIFICATION_TYPE":"U","NORAD_CAT_ID":29270,"ELEMENT_SET_NO":999,"REV_AT_EPOCH":4628,"BSTAR":0,"MEAN_MOTION_DOT":1.54e-6,"MEAN_MOTION_DDOT":0},{"OBJECT_NAME":"JCSAT-3A","OBJECT_ID":"2006-033A","EPOCH":"2026-03-07T09:48:38.712096","MEAN_MOTION":1.00271336,"ECCENTRICITY":0.00020766,"INCLINATION":0.0232,"RA_OF_ASC_NODE":257.4623,"ARG_OF_PERICENTER":91.2403,"MEAN_ANOMALY":91.5694,"EPHEMERIS_TYPE":0,"CLASSIFICATION_TYPE":"U","NORAD_CAT_ID":29272,"ELEMENT_SET_NO":999,"REV_AT_EPOCH":4671,"BSTAR":0,"MEAN_MOTION_DOT":-3.46e-6,"MEAN_MOTION_DDOT":0},{"OBJECT_NAME":"SYRACUSE 3B","OBJECT_ID":"2006-033B","EPOCH":"2026-03-07T07:05:14.754624","MEAN_MOTION":1.00271594,"ECCENTRICITY":0.00040585,"INCLINATION":2.6368,"RA_OF_ASC_NODE":81.3565,"ARG_OF_PERICENTER":267.699,"MEAN_ANOMALY":285.5692,"EPHEMERIS_TYPE":0,"CLASSIFICATION_TYPE":"U","NORAD_CAT_ID":29273,"ELEMENT_SET_NO":999,"REV_AT_EPOCH":7165,"BSTAR":0,"MEAN_MOTION_DOT":1.9e-7,"MEAN_MOTION_DDOT":0},{"OBJECT_NAME":"KOREASAT 5 (MUGUNGWHA 5)","OBJECT_ID":"2006-034A","EPOCH":"2026-03-07T13:57:38.791008","MEAN_MOTION":1.00272773,"ECCENTRICITY":0.00019825,"INCLINATION":1.5221,"RA_OF_ASC_NODE":84.3188,"ARG_OF_PERICENTER":301.874,"MEAN_ANOMALY":101.5552,"EPHEMERIS_TYPE":0,"CLASSIFICATION_TYPE":"U","NORAD_CAT_ID":29349,"ELEMENT_SET_NO":999,"REV_AT_EPOCH":4030,"BSTAR":0,"MEAN_MOTION_DOT":-3.59e-6,"MEAN_MOTION_DDOT":0},{"OBJECT_NAME":"ZHONGXING-22A","OBJECT_ID":"2006-038A","EPOCH":"2026-03-07T07:32:47.227200","MEAN_MOTION":1.00070258,"ECCENTRICITY":0.0001115,"INCLINATION":11.3104,"RA_OF_ASC_NODE":38.1924,"ARG_OF_PERICENTER":261.2857,"MEAN_ANOMALY":219.8034,"EPHEMERIS_TYPE":0,"CLASSIFICATION_TYPE":"U","NORAD_CAT_ID":29398,"ELEMENT_SET_NO":999,"REV_AT_EPOCH":7136,"BSTAR":0,"MEAN_MOTION_DOT":1.1e-7,"MEAN_MOTION_DDOT":0},{"OBJECT_NAME":"DIRECTV 9S","OBJECT_ID":"2006-043A","EPOCH":"2026-03-07T08:07:28.871040","MEAN_MOTION":1.0027246,"ECCENTRICITY":0.0003186,"INCLINATION":2.1576,"RA_OF_ASC_NODE":82.1645,"ARG_OF_PERICENTER":274.9456,"MEAN_ANOMALY":188.5978,"EPHEMERIS_TYPE":0,"CLASSIFICATION_TYPE":"U","NORAD_CAT_ID":29494,"ELEMENT_SET_NO":999,"REV_AT_EPOCH":5036,"BSTAR":0,"MEAN_MOTION_DOT":-1.15e-6,"MEAN_MOTION_DDOT":0},{"OBJECT_NAME":"OPTUS D1","OBJECT_ID":"2006-043B","EPOCH":"2026-03-07T12:43:38.625024","MEAN_MOTION":1.00272266,"ECCENTRICITY":0.00039061,"INCLINATION":2.7727,"RA_OF_ASC_NODE":80.9279,"ARG_OF_PERICENTER":271.7035,"MEAN_ANOMALY":155.4915,"EPHEMERIS_TYPE":0,"CLASSIFICATION_TYPE":"U","NORAD_CAT_ID":29495,"ELEMENT_SET_NO":999,"REV_AT_EPOCH":7110,"BSTAR":0,"MEAN_MOTION_DOT":-1.85e-6,"MEAN_MOTION_DDOT":0}]
